#aV2024  7 28  0  0  0.00000000     288 DD+AD WGS84 FIT  NGA
## 2325      0.00000000   300.00000000 60519 0.0000000000000
+   31     2  3  4  5  6  7  8  9 10 11 12 13 14 15 16 17 18
+         19 20 21 22 23 24 25 26 27 28 29 30 31 32  0  0  0
+          0  0  0  0  0  0  0  0  0  0  0  0  0  0  0  0  0
+          0  0  0  0  0  0  0  0  0  0  0  0  0  0  0  0  0
+          0  0  0  0  0  0  0  0  0  0  0  0  0  0  0  0  0
++         2  2  2  2  2  2  2  2  2  2  2  2  2  2  2  2  2
++         2  2  2  2  2  2  2  2  2  2  2  2  2  2  0  0  0
++         0  0  0  0  0  0  0  0  0  0  0  0  0  0  0  0  0
++         0  0  0  0  0  0  0  0  0  0  0  0  0  0  0  0  0
++         0  0  0  0  0  0  0  0  0  0  0  0  0  0  0  0  0
%c cc cc ccc ccc cccc cccc cccc cccc ccccc ccccc ccccc ccccc
%c cc cc ccc ccc cccc cccc cccc cccc ccccc ccccc ccccc ccccc
%f  0.0000000  0.000000000  0.00000000000  0.000000000000000
%f  0.0000000  0.000000000  0.00000000000  0.000000000000000
%i    0    0    0    0      0      0      0      0         0
%i    0    0    0    0      0      0      0      0         0
/*      NGA, ST. LOUIS,MO.                                  
/*   EPHEMERIS COMPUTED FROM 2 DAYS OF DATA                 
/*   EPOCHA v9 SMOOTHER                                     
/*   G2296 IERS2010 SATIGS SATAPC                           
*  2024  7 28 20 40  0.00000000
P  2 -13869.373883  14135.832744  18019.816559   -390.042301                    
V  2    597.691601 -22091.417186  18579.739387      0.074916                    
P  3 -21875.836533  12988.253668  -7581.412357    477.545181                    
V  3  -9534.116033   1241.645542  30409.960473      0.157752                    
P  4 -13243.457278   8088.816572 -21555.091598    413.108009                    
V  4 -19944.381789 -18751.543297   5077.741056      0.076235                    
P  5  24945.251369  -3927.660872  -8542.145088   -181.318706                    
V  5  -8944.566451   6010.488125 -29446.932499     -0.012897                    
P  6   6183.761365  20640.242479 -15396.602101    133.435563                    
V  6  -5277.583409  18981.590201  23334.206126     -0.235047                    
P  7  -5583.529547  25650.119820  -1169.470487    -61.218143                    
V  7  -3133.309854  -2746.680490 -31777.669376      0.068415                    
P  8 -20900.388139  -1653.304674  16440.896177    293.551150                    
V  8 -15300.564643 -14409.623268 -20336.282153      0.154750                    
P  9  -1855.121391  16943.725234 -20442.063695    291.611447                    
V  9 -20662.573237 -15453.078479 -11033.196157      0.152821                    
P 10  -7239.506503 -13062.791623  22191.111043    -78.344952                    
V 10  25997.049542  -9211.651587   2768.913163     -0.103293                    
P 11  13551.482154   7487.680943 -21562.715997   -712.749918                    
V 11  -6610.449937  26607.763449   5017.754596     -0.062660                    
P 12  23909.043641 -10417.436971  -5170.029539   -525.973487                    
V 12   6723.444078    943.340606  30901.671380     -0.030252                    
P 13  20858.322689  11370.815035  11902.660328    667.459651                    
V 13   8689.451213  12802.164579 -26733.354615      0.023300                    
P 14   2894.738076  15389.213109  21483.211581    459.564104                    
V 14 -26001.802048   8169.895079  -2572.876133      0.088355                    
P 15  20840.539718  -1026.146669  16027.060332    186.289712                    
V 15  16891.915290  13196.082074 -20294.673596      0.042953                    
P 16 -24329.713195  -1860.751593 -11347.515179   -223.904602                    
V 16  12806.623180  -5384.290200 -26949.737421      0.105094                    
P 17  10642.499901  21449.379913  11733.999211    667.775450                    
V 17 -11828.175869  -8337.759498  27094.960550     -0.084588                    
P 18   5935.116483 -25748.010033  -1008.038437   -641.154936                    
V 18   2254.942571   1789.752124 -32162.948446     -0.036294                    
P 19  17015.430611  20503.193621   2605.328306    516.915561                    
V 19  -4020.606380   -961.346956  31404.804635      0.052986                    
P 20  20240.450234   2230.221413 -16906.661508    372.271345                    
V 20 -17827.681541  12479.210340 -19770.523373     -0.003966                    
P 21 -15126.913672   7646.039009  20599.173005    106.156861                    
V 21    906.993990 -25524.635006  11382.195685     -0.021200                    
P 22  10918.172326  12449.355486  21124.222952    -44.986996                    
V 22 -24908.108581   7284.629155   9043.389545     -0.043709                    
P 23   6511.539559 -16621.929755  19617.492455    284.514428                    
V 23  23604.421605  -7928.759775 -14774.845788      0.088066                    
P 24  14391.476561 -12382.385630  17978.840399   -484.811385                    
V 24    228.263616  24048.133069  16408.772298     -0.011883                    
P 25  15689.909831 -16470.495371 -13832.824750    498.912219                    
V 25  16928.642170  -3661.485650  24407.351372      0.002998                    
P 26 -15859.320761  -8895.270882 -19626.317294    111.368917                    
V 26  21896.286273 -11275.902889 -12310.037755     -0.072149                    
P 27 -22616.092203 -11739.545078   7930.579960    -32.105973                    
V 27  -6434.424962  -8438.287505 -29334.624523     -0.007329                    
P 28  -6000.729917 -22223.516477 -13259.203655   -350.257867                    
V 28   4714.704732 -16298.239446  25202.466267     -0.154570                    
P 29   6411.842349 -14321.263058 -21457.053111   -587.157432                    
V 29  19661.289494  18698.587399  -6743.204589      0.020491                    
P 30   1927.445960  24931.845580   8694.351896   -349.817500                    
V 30  -5419.885755  10140.926487 -28638.866714      0.066555                    
P 31 -12235.136908 -12086.556312 -20360.358532   -226.391390                    
V 31   6366.210346 -24711.720116  11346.272139      0.003251                    
P 32 -13612.437708 -20628.456704  10205.835630   -609.535833                    
V 32  11089.227079   6348.129987  28018.724936      0.023536                    
EOF
